NORAD_CAT_ID,OBJECT_NAME,OBJECT_TYPE,EPOCH,MEAN_MOTION,ECCENTRICITY,INCLINATION,RA_OF_ASC_NODE,ARG_OF_PERICENTER,MEAN_ANOMALY,BSTAR,MEAN_MOTION_DOT,MEAN_MOTION_DDOT,TLE_LINE0,TLE_LINE1,TLE_LINE2,SEMIMAJOR_AXIS,PERIOD,APOGEE,PERIGEE,DECAYED
52098.0,STARLINK-3665,PAYLOAD,2022-04-30 22:00:00,15.44459621,0.0001286,53.2175,296.201,80.9111,86.6671,-0.0163789999999999,-0.00713044,0.0,0 STARLINK-3665,1 52098U 22029L   22120.91667824 -.00713044  00000-0 -16379-1 0  9997,2 52098  53.2175 296.2010 0001286  80.9111  86.6671 15.44459621  3677,6811.103,93.236,433.844,432.092,0.0
52098.0,STARLINK-3665,PAYLOAD,2022-05-01 12:00:00,15.43571426,0.0001337,53.2176,293.437,76.7276,95.1016,-0.017038,-0.00719123,0.0,0 STARLINK-3665,1 52098U 22029L   22121.50001157 -.00719123  00000-0 -17038-1 0  9991,2 52098  53.2176 293.4370 0001337  76.7276  95.1016 15.43571426  8027,6813.715999999999,93.29,436.492,434.67,0.0
52098.0,STARLINK-3665,PAYLOAD,2022-05-01 14:00:01,15.43443766,0.0001273,53.2177,293.0431,81.8152,193.3255,-0.017121,-0.0071946,0.0,0 STARLINK-3665,1 52098U 22029L   22121.58334491 -.00719460  00000-0 -17121-1 0  9996,2 52098  53.2177 293.0431 0001273  81.8152 193.3255 15.43443766  3645,6814.092,93.298,436.824,435.089,0.0
52098.0,STARLINK-3665,PAYLOAD,2022-05-01 22:00:01,15.42931934,0.0001148,53.2176,291.4682,86.8851,241.1819,-0.017336,-0.00716199,0.0,0 STARLINK-3665,1 52098U 22029L   22121.91668981 -.00716199  00000-0 -17336-1 0  9991,2 52098  53.2176 291.4682 0001148  86.8851 241.1819 15.42931934  3675,6815.598000000001,93.329,438.246,436.681,0.0
52098.0,STARLINK-3665,PAYLOAD,2022-05-02 12:00:00,15.42041606,0.0001173,53.2178,288.7107,83.5131,245.5244,-0.01794,-0.00718993,0.0,0 STARLINK-3665,1 52098U 22029L   22122.50001157 -.00718993  00000-0 -17940-1 0  9998,2 52098  53.2178 288.7107 0001173  83.5131 245.5244 15.42041606  8179,6818.222,93.383,440.886,439.287,0.0
52098.0,STARLINK-3665,PAYLOAD,2022-05-02 14:00:01,15.41915193,0.0001162,53.2177,288.318,72.5062,359.3826,-0.018096,-0.0072193,0.0,0 STARLINK-3665,1 52098U 22029L   22122.58334491 -.00721930  00000-0 -18096-1 0  9994,2 52098  53.2177 288.3180 0001162  72.5062 359.3826 15.41915193  3663,6818.594,93.39,441.252,439.667,0.0
52098.0,STARLINK-3665,PAYLOAD,2022-05-02 22:00:01,15.41400058,0.0001227,53.2173,286.7465,71.2928,51.6853,-0.018166,-0.0071301999999999,0.0,0 STARLINK-3665,1 52098U 22029L   22122.91668981 -.00713020  00000-0 -18166-1 0  9994,2 52098  53.2173 286.7465 0001227  71.2928  51.6853 15.41400058  3667,6820.113,93.422,442.815,441.142,0.0
52098.0,STARLINK-3665,PAYLOAD,2022-05-03 12:00:00,15.40510731,0.0001273,53.2177,283.9954,71.926,48.8052,-0.018852,-0.00717906,0.0,0 STARLINK-3665,1 52098U 22029L   22123.50001157 -.00717906  00000-0 -18852-1 0  9995,2 52098  53.2177 283.9954 0001273  71.9260  48.8052 15.40510731  8337,6822.738,93.475,445.471,443.734,0.0
52098.0,STARLINK-3665,PAYLOAD,2022-05-03 14:00:01,15.40383099,0.0001351,53.2176,283.6036,75.9181,147.205,-0.018931,-0.00717873,0.0,0 STARLINK-3665,1 52098U 22029L   22123.58334491 -.00717873  00000-0 -18931-1 0  9994,2 52098  53.2176 283.6036 0001351  75.9181 147.2050 15.40383099  3665,6823.115,93.483,445.902,444.0580000000001,0.0
52098.0,STARLINK-3665,PAYLOAD,2022-05-03 22:00:00,15.39871332,0.000126,53.2172,282.0356,99.9029,172.4056,-0.019151,-0.00714253,0.0,0 STARLINK-3665,1 52098U 22029L   22123.91667824 -.00714253  00000-0 -19151-1 0  9994,2 52098  53.2172 282.0356 0001260  99.9029 172.4056 15.39871332  3661,6824.626,93.514,447.351,445.632,0.0
52098.0,STARLINK-3665,PAYLOAD,2022-05-04 12:00:00,15.38981443,0.00013,53.2175,279.2911,83.3613,183.5477,-0.019848,-0.00718457,0.0,0 STARLINK-3665,1 52098U 22029L   22124.50001157 -.00718457  00000-0 -19848-1 0  9994,2 52098  53.2175 279.2911 0001300  83.3613 183.5477 15.38981443  8489,6827.257,93.568,450.01,448.234,0.0
52098.0,STARLINK-3665,PAYLOAD,2022-05-04 14:00:01,15.38854741,0.0001138,53.2176,278.9002,77.4186,291.4223,-0.019985,-0.00720236,0.0,0 STARLINK-3665,1 52098U 22029L   22124.58334491 -.00720236  00000-0 -19985-1 0  9992,2 52098  53.2176 278.9002 0001138  77.4186 291.4223 15.38854741  3679,6827.632,93.576,450.274,448.72,0.0
52098.0,STARLINK-3665,PAYLOAD,2022-05-04 22:00:01,15.38342607,0.0001081,53.2172,277.3358,89.7588,326.4934,-0.020194,-0.00715954,0.0,0 STARLINK-3665,1 52098U 22029L   22124.91668981 -.00715954  00000-0 -20194-1 0  9998,2 52098  53.2172 277.3358 0001081  89.7588 326.4934 15.38342607  3661,6829.147,93.607,451.75,450.274,0.0
52098.0,STARLINK-3665,PAYLOAD,2022-05-05 12:00:00,15.37452569,0.0001153,53.2175,274.5978,75.9919,331.5795,-0.020931,-0.00720431,0.0,0 STARLINK-3665,1 52098U 22029L   22125.50001157 -.00720431  00000-0 -20931-1 0  9995,2 52098  53.2175 274.5978 0001153  75.9919 331.5795 15.37452569  8649,6831.781999999997,93.661,454.435,452.86,0.0
52098.0,STARLINK-3665,PAYLOAD,2022-05-05 14:00:01,15.37323059,0.0001327,53.2174,274.2077,72.2186,76.8264,-0.020925,-0.00717455,0.0,0 STARLINK-3665,1 52098U 22029L   22125.58334491 -.00717455  00000-0 -20925-1 0  9998,2 52098  53.2174 274.2077 0001327  72.2186  76.8264 15.37323059  3673,6832.166,93.669,454.93800000000016,453.124,0.0
52098.0,STARLINK-3665,PAYLOAD,2022-05-05 22:00:00,15.36812896,0.0001293,53.2172,272.6468,86.1485,108.4046,-0.021246,-0.00716537,0.0,0 STARLINK-3665,1 52098U 22029L   22125.91667824 -.00716537  00000-0 -21246-1 0  9991,2 52098  53.2172 272.6468 0001293  86.1485 108.4046 15.36812896  3665,6833.678000000001,93.7,456.427,454.659,0.0
52098.0,STARLINK-3665,PAYLOAD,2022-05-06 14:00:01,15.35792769,0.0001341999999999,53.2174,269.5261,70.6128,213.1204,-0.021949,-0.00716227,0.0,0 STARLINK-3665,1 52098U 22029L   22126.58334491 -.00716227  00000-0 -21949-1 0  9992,2 52098  53.2174 269.5261 0001342  70.6128 213.1204 15.35792769  8806,6836.704000000002,93.763,459.486,457.651,0.0
52098.0,STARLINK-3665,PAYLOAD,2022-05-07 12:00:00,15.34391658,0.0001283,53.2177,265.2435,70.0096,242.3428,-0.02303,-0.00718252,0.0,0 STARLINK-3665,1 52098U 22029L   22127.50001157 -.00718252  00000-0 -23030-1 0  9998,2 52098  53.2177 265.2435 0001283  70.0096 242.3428 15.34391658  8945,6840.865,93.848,463.608,461.852,0.0
52098.0,STARLINK-3665,PAYLOAD,2022-05-07 14:00:01,15.34264565,0.000128,53.2176,264.8555,60.9272,351.9785,-0.023159,-0.00719263,0.0,0 STARLINK-3665,1 52098U 22029L   22127.58334491 -.00719263  00000-0 -23159-1 0  9991,2 52098  53.2176 264.8555 0001280  60.9272 351.9785 15.34264565  3677,6841.243,93.856,463.983,462.232,0.0
52098.0,STARLINK-3665,PAYLOAD,2022-05-07 22:00:00,15.33753326,0.0001162,53.2172,263.3013,78.4067,16.3312,-0.023435,-0.00716287,0.0,0 STARLINK-3665,1 52098U 22029L   22127.91667824 -.00716287  00000-0 -23435-1 0  9997,2 52098  53.2172 263.3013 0001162  78.4067  16.3312 15.33753326  3665,6842.763000000001,93.887,465.423,463.833,0.0
52098.0,STARLINK-3665,PAYLOAD,2022-05-08 12:00:00,15.32862544,0.0001328,53.2176,260.583,58.2877,18.1821,-0.02424,-0.00719948,0.0,0 STARLINK-3665,1 52098U 22029L   22128.50001157 -.00719948  00000-0 -24240-1 0  9996,2 52098  53.2176 260.5830 0001328  58.2877  18.1821 15.32862544  9106,6845.4140000000025,93.942,468.18800000000016,466.37,0.0
52098.0,STARLINK-3665,PAYLOAD,2022-05-08 14:00:01,15.32732164,0.0001501,53.2175,260.1955,60.0049,116.56,-0.024172,-0.00715369,0.0,0 STARLINK-3665,1 52098U 22029L   22128.58334491 -.00715369  00000-0 -24172-1 0  9991,2 52098  53.2175 260.1955 0001501  60.0049 116.5600 15.32732164  3650,6845.802,93.95,468.694,466.639,0.0
52098.0,STARLINK-3665,PAYLOAD,2022-05-08 22:00:00,15.32224769,0.0001329,53.2172,258.6447,84.037,132.5205,-0.024709,-0.00719287,0.0,0 STARLINK-3665,1 52098U 22029L   22128.91667824 -.00719287  00000-0 -24709-1 0  9996,2 52098  53.2172 258.6447 0001329  84.0370 132.5205 15.32224769  3663,6847.313,93.981,470.088,468.268,0.0
52098.0,STARLINK-3665,PAYLOAD,2022-05-09 14:00:01,15.31202505,0.0001425,53.2175,255.5464,60.1293,234.642,-0.025362,-0.00715285,0.0,0 STARLINK-3665,1 52098U 22029L   22129.58335648 -.00715285  00000-0 -25362-1 0  9996,2 52098  53.2175 255.5464 0001425  60.1293 234.6420 15.31202505  3674,6850.36,94.044,473.202,471.249,0.0
52098.0,STARLINK-3665,PAYLOAD,2022-05-09 20:00:01,15.30819022,0.0001349,53.2173,254.3863,73.1131,160.2683,-0.025578,-0.00712949,0.0,0 STARLINK-3665,1 52098U 22029L   22129.83334491 -.00712949  00000-0 -25578-1 0  9992,2 52098  53.2173 254.3863 0001349  73.1131 160.2683 15.30819022  9300,6851.504,94.067,474.294,472.445,0.0
52098.0,STARLINK-3665,PAYLOAD,2022-05-09 22:00:00,15.30695441,0.0001199,53.2173,253.999,74.8649,257.997,-0.025951,-0.00719959,0.0,0 STARLINK-3665,1 52098U 22029L   22129.91667824 -.00719959  00000-0 -25951-1 0  9993,2 52098  53.2173 253.9990 0001199  74.8649 257.9970 15.30695441  3664,6851.873000000001,94.075,474.56,472.917,0.0
52098.0,STARLINK-3665,PAYLOAD,2022-05-10 14:00:01,15.29674553,0.0001398,53.2175,250.9083,52.9229,354.4116,-0.026723,-0.00718338,0.0,0 STARLINK-3665,1 52098U 22029L   22130.58334491 -.00718338  00000-0 -26723-1 0  9997,2 52098  53.2175 250.9083 0001398  52.9229 354.4116 15.29674553  3662,6854.920999999999,94.138,477.745,475.828,0.0
52098.0,STARLINK-3665,PAYLOAD,2022-05-10 20:04:41,15.30669931,0.0001653,53.2167,249.7266,0.3356,359.7646,-0.0073908999999999,-0.00216166,0.0,0 STARLINK-3665,1 52098U 22029L   22130.83659646 -.00216166  00000-0 -73909-2 0  9998,2 52098  53.2167 249.7266 0001653   0.3356 359.7646 15.30669931  9460,6851.949000000001,94.076,474.947,472.682,0.0
52098.0,STARLINK-3665,PAYLOAD,2022-05-11 20:00:01,15.27760552,0.0001233,53.2172,245.1258,70.0682,20.2958,-0.028194,-0.00722967,0.0,0 STARLINK-3665,1 52098U 22029L   22131.83334491 -.00722967  00000-0 -28194-1 0  9993,2 52098  53.2172 245.1258 0001233  70.0682  20.2958 15.27760552  9617,6860.646,94.256,483.356,481.665,0.0
